{
  "type": "FeatureCollection",
  "features": [
    {
      "type": "Feature",
      "properties": {
        "norad_id": 44231,
        "name": "BEIDOU-2 G8 (C01)",
        "group": "gnss",
        "lat": 1.5362128645749276,
        "lon": -170.25363158208867,
        "alt_km": 35813.37782410827,
        "timestamp": "2025-12-25T20:42:38.933246+00:00",
        "meta_object_name": "BEIDOU-2 G8 (C01)",
        "meta_object_id": "2019-027A",
        "meta_epoch": "2025-12-25T00:03:30.600000",
        "meta_mean_motion": 1.00274531,
        "meta_eccentricity": 0.00082946,
        "meta_inclination": 1.691,
        "meta_ra_of_asc_node": 74.7363,
        "meta_arg_of_pericenter": 259.0794,
        "meta_mean_anomaly": 265.3408,
        "meta_ephemeris_type": 0,
        "meta_classification_type": "U",
        "meta_norad_cat_id": 44231,
        "meta_element_set_no": 999,
        "meta_rev_at_epoch": 2433,
        "meta_bstar": 0,
        "meta_mean_motion_dot": -2.26e-06,
        "meta_mean_motion_ddot": 0,
        "tle_line1": "1 44231U 19027A   25359.00243750 -.00000226  00000+0  00000+0 0  9997",
        "tle_line2": "2 44231   1.6910  74.7363 0008294 259.0794 265.3408  1.00274531 24335"
      },
      "geometry": {
        "type": "Point",
        "coordinates": [
          -170.25363158208867,
          1.5362128645749276
        ]
      }
    },
    {
      "type": "Feature",
      "properties": {
        "norad_id": 44299,
        "name": "COSMOS 2534 (758)",
        "group": "gnss",
        "lat": 9.383159148450893,
        "lon": -156.9928164885233,
        "alt_km": 19127.905355707448,
        "timestamp": "2025-12-25T20:42:38.933258+00:00",
        "meta_object_name": "COSMOS 2534 (758)",
        "meta_object_id": "2019-030A",
        "meta_epoch": "2025-12-25T02:45:29.854368",
        "meta_mean_motion": 2.13102173,
        "meta_eccentricity": 0.00086185,
        "meta_inclination": 64.3664,
        "meta_ra_of_asc_node": 198.4757,
        "meta_arg_of_pericenter": 283.7292,
        "meta_mean_anomaly": 232.7894,
        "meta_ephemeris_type": 0,
        "meta_classification_type": "U",
        "meta_norad_cat_id": 44299,
        "meta_element_set_no": 999,
        "meta_rev_at_epoch": 5121,
        "meta_bstar": 0,
        "meta_mean_motion_dot": 1.03e-06,
        "meta_mean_motion_ddot": 0,
        "tle_line1": "1 44299U 19030A   25359.11492887  .00000103  00000+0  00000+0 0  9997",
        "tle_line2": "2 44299  64.3664 198.4757 0008618 283.7292 232.7894  2.13102173 51210"
      },
      "geometry": {
        "type": "Point",
        "coordinates": [
          -156.9928164885233,
          9.383159148450893
        ]
      }
    },
    {
      "type": "Feature",
      "properties": {
        "norad_id": 44337,
        "name": "BEIDOU-3 IGSO-2 (C39)",
        "group": "gnss",
        "lat": 3.591639467922949,
        "lon": 162.87171762548758,
        "alt_km": 35939.0374541237,
        "timestamp": "2025-12-25T20:42:38.933269+00:00",
        "meta_object_name": "BEIDOU-3 IGSO-2 (C39)",
        "meta_object_id": "2019-035A",
        "meta_epoch": "2025-12-24T20:30:50.966784",
        "meta_mean_motion": 1.00267539,
        "meta_eccentricity": 0.00378522,
        "meta_inclination": 55.2292,
        "meta_ra_of_asc_node": 160.3949,
        "meta_arg_of_pericenter": 202.5754,
        "meta_mean_anomaly": 157.6854,
        "meta_ephemeris_type": 0,
        "meta_classification_type": "U",
        "meta_norad_cat_id": 44337,
        "meta_element_set_no": 999,
        "meta_rev_at_epoch": 2392,
        "meta_bstar": 0,
        "meta_mean_motion_dot": -7e-07,
        "meta_mean_motion_ddot": 0,
        "tle_line1": "1 44337U 19035A   25358.85475656 -.00000070  00000+0  00000+0 0  9994",
        "tle_line2": "2 44337  55.2292 160.3949 0037852 202.5754 157.6854  1.00267539 23925"
      },
      "geometry": {
        "type": "Point",
        "coordinates": [
          162.87171762548758,
          3.591639467922949
        ]
      }
    },
    {
      "type": "Feature",
      "properties": {
        "norad_id": 44506,
        "name": "GPS BIII-2  (PRN 18)",
        "group": "gnss",
        "lat": 19.878970532553492,
        "lon": 143.7448146400155,
        "alt_km": 20067.159223076695,
        "timestamp": "2025-12-25T20:42:38.933281+00:00",
        "meta_object_name": "GPS BIII-2  (PRN 18)",
        "meta_object_id": "2019-056A",
        "meta_epoch": "2025-12-25T04:27:47.883168",
        "meta_mean_motion": 2.00566525,
        "meta_eccentricity": 0.00577677,
        "meta_inclination": 55.7168,
        "meta_ra_of_asc_node": 338.0593,
        "meta_arg_of_pericenter": 198.6492,
        "meta_mean_anomaly": 188.635,
        "meta_ephemeris_type": 0,
        "meta_classification_type": "U",
        "meta_norad_cat_id": 44506,
        "meta_element_set_no": 999,
        "meta_rev_at_epoch": 4658,
        "meta_bstar": 0,
        "meta_mean_motion_dot": -5.9e-07,
        "meta_mean_motion_ddot": 0,
        "tle_line1": "1 44506U 19056A   25359.18597087 -.00000059  00000+0  00000+0 0  9992",
        "tle_line2": "2 44506  55.7168 338.0593 0057767 198.6492 188.6350  2.00566525 46580"
      },
      "geometry": {
        "type": "Point",
        "coordinates": [
          143.7448146400155,
          19.878970532553492
        ]
      }
    },
    {
      "type": "Feature",
      "properties": {
        "norad_id": 44542,
        "name": "BEIDOU-3 M24 (C46)",
        "group": "gnss",
        "lat": 30.25823660875939,
        "lon": -146.71061864346146,
        "alt_km": 21498.38004497247,
        "timestamp": "2025-12-25T20:42:38.933292+00:00",
        "meta_object_name": "BEIDOU-3 M24 (C46)",
        "meta_object_id": "2019-061A",
        "meta_epoch": "2025-12-24T17:34:06.027744",
        "meta_mean_motion": 1.86229347,
        "meta_eccentricity": 0.00095746,
        "meta_inclination": 54.4007,
        "meta_ra_of_asc_node": 188.6113,
        "meta_arg_of_pericenter": 26.2213,
        "meta_mean_anomaly": 333.8628,
        "meta_ephemeris_type": 0,
        "meta_classification_type": "U",
        "meta_norad_cat_id": 44542,
        "meta_element_set_no": 999,
        "meta_rev_at_epoch": 4254,
        "meta_bstar": 0,
        "meta_mean_motion_dot": 1.06e-06,
        "meta_mean_motion_ddot": 0,
        "tle_line1": "1 44542U 19061A   25358.73201421  .00000106  00000+0  00000+0 0  9994",
        "tle_line2": "2 44542  54.4007 188.6113 0009574  26.2213 333.8628  1.86229347 42540"
      },
      "geometry": {
        "type": "Point",
        "coordinates": [
          -146.71061864346146,
          30.25823660875939
        ]
      }
    },
    {
      "type": "Feature",
      "properties": {
        "norad_id": 44543,
        "name": "BEIDOU-3 M23 (C45)",
        "group": "gnss",
        "lat": -37.9031234112501,
        "lon": 154.6273189546161,
        "alt_km": 21528.61257668522,
        "timestamp": "2025-12-25T20:42:38.933306+00:00",
        "meta_object_name": "BEIDOU-3 M23 (C45)",
        "meta_object_id": "2019-061B",
        "meta_epoch": "2025-12-25T03:38:38.812704",
        "meta_mean_motion": 1.86227443,
        "meta_eccentricity": 0.0006014,
        "meta_inclination": 54.3997,
        "meta_ra_of_asc_node": 188.5655,
        "meta_arg_of_pericenter": 25.8754,
        "meta_mean_anomaly": 168.3625,
        "meta_ephemeris_type": 0,
        "meta_classification_type": "U",
        "meta_norad_cat_id": 44543,
        "meta_element_set_no": 999,
        "meta_rev_at_epoch": 4255,
        "meta_bstar": 0,
        "meta_mean_motion_dot": 1.1e-06,
        "meta_mean_motion_ddot": 0,
        "tle_line1": "1 44543U 19061B   25359.15183811  .00000110  00000+0  00000+0 0  9999",
        "tle_line2": "2 44543  54.3997 188.5655 0006014  25.8754 168.3625  1.86227443 42553"
      },
      "geometry": {
        "type": "Point",
        "coordinates": [
          154.6273189546161,
          -37.9031234112501
        ]
      }
    },
    {
      "type": "Feature",
      "properties": {
        "norad_id": 44624,
        "name": "EUTELSAT 5 WEST B (EGNOS/PRN 121)",
        "group": "gnss",
        "lat": 0.0621149611807641,
        "lon": 40.30175144095063,
        "alt_km": 35794.31209256079,
        "timestamp": "2025-12-25T20:42:38.933317+00:00",
        "meta_object_name": "EUTELSAT 5 WEST B (EGNOS/PRN 121)",
        "meta_object_id": "2019-067A",
        "meta_epoch": "2025-12-25T06:11:32.851104",
        "meta_mean_motion": 1.0027129,
        "meta_eccentricity": 0.00031685,
        "meta_inclination": 0.063,
        "meta_ra_of_asc_node": 344.5526,
        "meta_arg_of_pericenter": 288.486,
        "meta_mean_anomaly": 268.8705,
        "meta_ephemeris_type": 0,
        "meta_classification_type": "U",
        "meta_norad_cat_id": 44624,
        "meta_element_set_no": 999,
        "meta_rev_at_epoch": 2269,
        "meta_bstar": 0,
        "meta_mean_motion_dot": -2.1e-07,
        "meta_mean_motion_ddot": 0,
        "tle_line1": "1 44624U 19067A   25359.25801911 -.00000021  00000+0  00000+0 0  9996",
        "tle_line2": "2 44624   0.0630 344.5526 0003168 288.4860 268.8705  1.00271290 22691"
      },
      "geometry": {
        "type": "Point",
        "coordinates": [
          40.30175144095063,
          0.0621149611807641
        ]
      }
    }
  ]
}